{
  "type": "FeatureCollection",
  "name": "Biocorredor MR - parcelas referenciadas por propuesta comunitaria",
  "source": "GeoARBA / IDEBA",
  "source_document": "Biocorredor M. Rivadavia (1).pdf",
  "source_status": "referencia comunitaria pendiente de verificacion catastral",
  "features": [
    {
      "type": "Feature",
      "geometry": {
        "type": "Polygon",
        "coordinates": [
          [
            [
              -58.34746310573486,
              -34.852946159323785
            ],
            [
              -58.35211771821947,
              -34.85528054395019
            ],
            [
              -58.35146844702879,
              -34.8535728398223
            ],
            [
              -58.351090977553895,
              -34.85249069806488
            ],
            [
              -58.35070114862304,
              -34.851480489449536
            ],
            [
              -58.350235607140014,
              -34.85070358382469
            ],
            [
              -58.3495757619094,
              -34.85008176239974
            ],
            [
              -58.34746310573486,
              -34.852946159323785
            ]
          ]
        ]
      },
      "properties": {
        "nomenclatura": "00304000000000000000000000000000000069400H",
        "tipo": "Rural",
        "superficie_m2": 105483.78,
        "partida": "003018558",
        "fuente": "GeoARBA",
        "crs": "EPSG:5347",
        "operational_name": "694H",
        "area_name": "Reserva Juan B. Justo",
        "source_value": "694h",
        "normalized_value": "694H",
        "source_document": "Biocorredor M. Rivadavia (1).pdf",
        "source_pages": [
          6
        ],
        "reference_status": "referencia_comunitaria",
        "source_note": "Pastizal arbolado junto al arroyo Las Piedras"
      }
    },
    {
      "type": "Feature",
      "geometry": {
        "type": "Polygon",
        "coordinates": [
          [
            [
              -58.35211771821947,
              -34.85528054395019
            ],
            [
              -58.35229090018751,
              -34.85536851208822
            ],
            [
              -58.357925546226525,
              -34.85819363079917
            ],
            [
              -58.35831678460169,
              -34.85583757274686
            ],
            [
              -58.35844668960103,
              -34.85535263787948
            ],
            [
              -58.351090977553895,
              -34.85249069806488
            ],
            [
              -58.35146844702879,
              -34.8535728398223
            ],
            [
              -58.35211771821947,
              -34.85528054395019
            ]
          ]
        ]
      },
      "properties": {
        "nomenclatura": "003040000000000000000000000000000000701000",
        "tipo": "Rural",
        "superficie_m2": 180390.07,
        "partida": "003009135",
        "fuente": "GeoARBA",
        "crs": "EPSG:5347",
        "operational_name": "701",
        "area_name": "Reserva Juan B. Justo",
        "source_value": "701",
        "normalized_value": "701",
        "source_document": "Biocorredor M. Rivadavia (1).pdf",
        "source_pages": [
          6
        ],
        "reference_status": "referencia_comunitaria",
        "source_note": "Pastizal arbolado junto al arroyo Las Piedras"
      }
    },
    {
      "type": "Feature",
      "geometry": {
        "type": "Polygon",
        "coordinates": [
          [
            [
              -58.343124863153875,
              -34.855293430159655
            ],
            [
              -58.34546203858631,
              -34.856514937862954
            ],
            [
              -58.3474561049734,
              -34.85384283194578
            ],
            [
              -58.347782454490954,
              -34.85337860446163
            ],
            [
              -58.34542814351992,
              -34.852201882010974
            ],
            [
              -58.343124863153875,
              -34.855293430159655
            ]
          ]
        ]
      },
      "properties": {
        "nomenclatura": "003040000000000000000000000000000000739000",
        "tipo": "Rural",
        "superficie_m2": 102560.05,
        "partida": "003000404",
        "fuente": "GeoARBA",
        "crs": "EPSG:5347",
        "operational_name": "739",
        "area_name": "Lateral de la Granja Municipal",
        "source_value": "739",
        "normalized_value": "739",
        "source_document": "Biocorredor M. Rivadavia (1).pdf",
        "source_pages": [
          7
        ],
        "reference_status": "referencia_comunitaria",
        "source_note": "Referencia comunitaria"
      }
    },
    {
      "type": "Feature",
      "geometry": {
        "type": "Polygon",
        "coordinates": [
          [
            [
              -58.343124863153875,
              -34.855293430159655
            ],
            [
              -58.34542814351992,
              -34.852201882010974
            ],
            [
              -58.345233295988464,
              -34.85210459665939
            ],
            [
              -58.34293010170533,
              -34.855191635899864
            ],
            [
              -58.343124863153875,
              -34.855293430159655
            ]
          ]
        ]
      },
      "properties": {
        "nomenclatura": "00304000000000000000000000000000000073800C",
        "tipo": "Rural",
        "superficie_m2": 8436.25,
        "partida": "003068731",
        "fuente": "GeoARBA",
        "crs": "EPSG:5347",
        "operational_name": "738C",
        "area_name": "Lateral de la Granja Municipal",
        "source_value": "738C",
        "normalized_value": "738C",
        "source_document": "Biocorredor M. Rivadavia (1).pdf",
        "source_pages": [
          7
        ],
        "reference_status": "referencia_comunitaria",
        "source_note": "Referencia eventual"
      }
    },
    {
      "type": "Feature",
      "geometry": {
        "type": "Polygon",
        "coordinates": [
          [
            [
              -58.34289995037771,
              -34.85069837667962
            ],
            [
              -58.34576471036202,
              -34.846852891523426
            ],
            [
              -58.345011920724474,
              -34.8462297814443
            ],
            [
              -58.344686967755884,
              -34.84580626562933
            ],
            [
              -58.34151967907687,
              -34.850017122044555
            ],
            [
              -58.34289995037771,
              -34.85069837667962
            ]
          ]
        ]
      },
      "properties": {
        "nomenclatura": "00304000000000000000000000000000000069400D",
        "tipo": "",
        "superficie_m2": 76127.39,
        "partida": "",
        "fuente": "GeoARBA",
        "crs": "EPSG:5347",
        "operational_name": "694D",
        "area_name": "Bosque hasta el arroyo",
        "source_value": "694d",
        "normalized_value": "694D",
        "source_document": "Biocorredor M. Rivadavia (1).pdf",
        "source_pages": [
          8
        ],
        "reference_status": "referencia_comunitaria",
        "source_note": "Alta cobertura arbórea"
      }
    },
    {
      "type": "Feature",
      "geometry": {
        "type": "MultiPolygon",
        "coordinates": [
          [
            [
              [
                -58.316559692085725,
                -34.84138738863622
              ],
              [
                -58.31464205252105,
                -34.840364111800255
              ],
              [
                -58.314900947599654,
                -34.84107546737784
              ],
              [
                -58.314942641130344,
                -34.841175184881635
              ],
              [
                -58.3149641307806,
                -34.841193508065636
              ],
              [
                -58.314963763438506,
                -34.8412115283874
              ],
              [
                -58.3150173039513,
                -34.84126634649315
              ],
              [
                -58.31512493615221,
                -34.841348952154526
              ],
              [
                -58.3151462422355,
                -34.841376285469714
              ],
              [
                -58.31522164003744,
                -34.84143140631818
              ],
              [
                -58.315254241990935,
                -34.84144087069958
              ],
              [
                -58.31529722157705,
                -34.841477516960296
              ],
              [
                -58.315384099001164,
                -34.84150575862702
              ],
              [
                -58.31570010879163,
                -34.84155519944979
              ],
              [
                -58.31609261890685,
                -34.84160569879837
              ],
              [
                -58.31636546587278,
                -34.84162750208501
              ],
              [
                -58.316559692085725,
                -34.84138738863622
              ]
            ]
          ],
          [
            [
              [
                -58.30822965585276,
                -34.844439208307186
              ],
              [
                -58.31236014058318,
                -34.84666415659667
              ],
              [
                -58.31628731415942,
                -34.84170753441617
              ],
              [
                -58.31616563928869,
                -34.84168097461498
              ],
              [
                -58.31591023937302,
                -34.84166130516749
              ],
              [
                -58.31580703149311,
                -34.841661948745966
              ],
              [
                -58.31574143633694,
                -34.841672937034176
              ],
              [
                -58.315676048537696,
                -34.84166301867987
              ],
              [
                -58.31514275282578,
                -34.84154747853495
              ],
              [
                -58.31502364082228,
                -34.841491751940886
              ],
              [
                -58.31499158988764,
                -34.84145525701607
              ],
              [
                -58.314926937073196,
                -34.841409297624175
              ],
              [
                -58.31482077450019,
                -34.84125461051111
              ],
              [
                -58.31482114187405,
                -34.84123659019083
              ],
              [
                -58.31467549090959,
                -34.84087406349988
              ],
              [
                -58.314455894870704,
                -34.84026734892647
              ],
              [
                -58.31238202185684,
                -34.839205009519574
              ],
              [
                -58.30822965585276,
                -34.844439208307186
              ]
            ]
          ]
        ]
      },
      "properties": {
        "nomenclatura": "003040000000000000000000000000000000748000",
        "tipo": "Rural",
        "superficie_m2": 312100.88,
        "partida": "003103888",
        "fuente": "GeoARBA",
        "crs": "EPSG:5347",
        "operational_name": "748",
        "area_name": "La Tosquera",
        "source_value": "748",
        "normalized_value": "748",
        "source_document": "Biocorredor M. Rivadavia (1).pdf",
        "source_pages": [
          9
        ],
        "reference_status": "referencia_comunitaria",
        "source_note": "Parcela asociada a La Tosquera"
      }
    },
    {
      "type": "Feature",
      "geometry": {
        "type": "MultiPolygon",
        "coordinates": [
          [
            [
              [
                -58.316559692085725,
                -34.84138738863622
              ],
              [
                -58.31636546587278,
                -34.84162750208501
              ],
              [
                -58.31639792407775,
                -34.84164940170866
              ],
              [
                -58.31640506389696,
                -34.841674555884524
              ],
              [
                -58.316408039212796,
                -34.84171632591286
              ],
              [
                -58.31638438668847,
                -34.84177196736266
              ],
              [
                -58.316382551482945,
                -34.841862069028124
              ],
              [
                -58.31641405264406,
                -34.84192559410569
              ],
              [
                -58.31643590985102,
                -34.84192589670918
              ],
              [
                -58.31669635965083,
                -34.84201971942403
              ],
              [
                -58.31675008532853,
                -34.84206552663988
              ],
              [
                -58.31680215977161,
                -34.842192425345324
              ],
              [
                -58.31682346662781,
                -34.842219758385085
              ],
              [
                -58.31704984951406,
                -34.842376107648356
              ],
              [
                -58.317103392171454,
                -34.84243092488667
              ],
              [
                -58.31708567588505,
                -34.84276414988391
              ],
              [
                -58.3171282900819,
                -34.84281881586953
              ],
              [
                -58.317150147533034,
                -34.84281911835141
              ],
              [
                -58.31720424084824,
                -34.8428469050454
              ],
              [
                -58.31738753553644,
                -34.84296660659439
              ],
              [
                -58.31746348653148,
                -34.84299469561407
              ],
              [
                -58.317539804385156,
                -34.843004764247375
              ],
              [
                -58.31761777280563,
                -34.84293374129838
              ],
              [
                -58.31771686503089,
                -34.84289906135957
              ],
              [
                -58.31778225409321,
                -34.84290897864931
              ],
              [
                -58.317846359591115,
                -34.84298196710588
              ],
              [
                -58.31822171609722,
                -34.84333865448552
              ],
              [
                -58.318318792062335,
                -34.843403085968944
              ],
              [
                -58.318372336221806,
                -34.843457902682665
              ],
              [
                -58.31837196959167,
                -34.843475923029274
              ],
              [
                -58.31839346060474,
                -34.84349424563937
              ],
              [
                -58.318403656178994,
                -34.84353043746324
              ],
              [
                -58.31843552611591,
                -34.843575941716274
              ],
              [
                -58.31844535510103,
                -34.843630153883794
              ],
              [
                -58.318476491876666,
                -34.8437116988208
              ],
              [
                -58.31859121043821,
                -34.843983666340236
              ],
              [
                -58.31863419282903,
                -34.84402031148676
              ],
              [
                -58.3187101452341,
                -34.84404839976278
              ],
              [
                -58.31876387333732,
                -34.84409420614377
              ],
              [
                -58.318838176436266,
                -34.844203385911634
              ],
              [
                -58.31884837228125,
                -34.84423957770223
              ],
              [
                -58.3188804259903,
                -34.84427607167397
              ],
              [
                -58.31889062186162,
                -34.84431226346141
              ],
              [
                -58.31900717508609,
                -34.84449412888063
              ],
              [
                -58.31908147885016,
                -34.844603308512404
              ],
              [
                -58.319102970308556,
                -34.84462163100673
              ],
              [
                -58.31914467057984,
                -34.84472134721017
              ],
              [
                -58.319142838181435,
                -34.84481144895975
              ],
              [
                -58.319153400703385,
                -34.84482962037754
              ],
              [
                -58.319152850985375,
                -34.8448566509022
              ],
              [
                -58.3191415554977,
                -34.84487452018364
              ],
              [
                -58.31913990632704,
                -34.84495561175613
              ],
              [
                -58.31911749855656,
                -34.84498234013937
              ],
              [
                -58.31911713206805,
                -34.845000360488356
              ],
              [
                -58.31909454103062,
                -34.84503609904099
              ],
              [
                -58.31908214601257,
                -34.845108029360674
              ],
              [
                -58.31905900517375,
                -34.84517079842687
              ],
              [
                -58.31907921402003,
                -34.84525219214552
              ],
              [
                -58.31911126820761,
                -34.845288686064734
              ],
              [
                -58.31914258944775,
                -34.84536122067245
              ],
              [
                -58.319138741305366,
                -34.84555043432479
              ],
              [
                -58.31914930391405,
                -34.84556860574351
              ],
              [
                -58.31914857093458,
                -34.84560464643856
              ],
              [
                -58.31927220767262,
                -34.84597587635456
              ],
              [
                -58.31931708339354,
                -34.84603237539171
              ],
              [
                -58.32107159561424,
                -34.84374530303624
              ],
              [
                -58.316559692085725,
                -34.84138738863622
              ]
            ]
          ],
          [
            [
              [
                -58.31895570235094,
                -34.846476573271374
              ],
              [
                -58.3192453880171,
                -34.84612277327438
              ],
              [
                -58.31920489194966,
                -34.84606056661704
              ],
              [
                -58.319121032015865,
                -34.84588365967074
              ],
              [
                -58.31912139851557,
                -34.84586563932433
              ],
              [
                -58.31909007712169,
                -34.84579310471194
              ],
              [
                -58.31909062687938,
                -34.84576607419234
              ],
              [
                -58.319040196171336,
                -34.84555808481436
              ],
              [
                -58.31903219918604,
                -34.84541377095951
              ],
              [
                -58.318991781557756,
                -34.84525098350784
              ],
              [
                -58.31902042013821,
                -34.84491790923884
              ],
              [
                -58.318969073742906,
                -34.844754970694815
              ],
              [
                -58.31892645735645,
                -34.84470030530766
              ],
              [
                -58.318905698979286,
                -34.844645942086885
              ],
              [
                -58.31884195783581,
                -34.844554933796616
              ],
              [
                -58.318810637138675,
                -34.8444823991185
              ],
              [
                -58.3188006245599,
                -34.84443719715187
              ],
              [
                -58.318801907482865,
                -34.8443741259345
              ],
              [
                -58.3187913450935,
                -34.84435595448875
              ],
              [
                -58.31879244474478,
                -34.844301893444914
              ],
              [
                -58.31878206564203,
                -34.84427471182445
              ],
              [
                -58.31875019525713,
                -34.8442292076541
              ],
              [
                -58.31856696979372,
                -34.84410049636236
              ],
              [
                -58.31844913490527,
                -34.84398170176414
              ],
              [
                -58.31844950152552,
                -34.8439636814183
              ],
              [
                -58.318407252505,
                -34.84389099551804
              ],
              [
                -58.31838741123321,
                -34.843791581352924
              ],
              [
                -58.31833551674308,
                -34.84365567308707
              ],
              [
                -58.318283072439556,
                -34.84354679531943
              ],
              [
                -58.318197291826976,
                -34.84346449460881
              ],
              [
                -58.31815412657655,
                -34.84343685949079
              ],
              [
                -58.31814356444315,
                -34.84341868799359
              ],
              [
                -58.31812189016437,
                -34.84340937551349
              ],
              [
                -58.31778988208237,
                -34.8430713129163
              ],
              [
                -58.31774671717416,
                -34.84304367766168
              ],
              [
                -58.31754981612929,
                -34.84304996630333
              ],
              [
                -58.317462019241745,
                -34.84306677697204
              ],
              [
                -58.31737458916327,
                -34.84306556723773
              ],
              [
                -58.31732031222074,
                -34.84304679078382
              ],
              [
                -58.31725547341734,
                -34.84300984273786
              ],
              [
                -58.31723427550987,
                -34.8429825112796
              ],
              [
                -58.317104965039704,
                -34.8428905947306
              ],
              [
                -58.31698695050364,
                -34.84278080897021
              ],
              [
                -58.316976572171306,
                -34.84275362721158
              ],
              [
                -58.31697803986715,
                -34.84268154586785
              ],
              [
                -58.31700081457566,
                -34.842636797534915
              ],
              [
                -58.317001915327424,
                -34.8425827365255
              ],
              [
                -58.316982076003896,
                -34.842483322168
              ],
              [
                -58.31695075766819,
                -34.842410787056295
              ],
              [
                -58.31691852205561,
                -34.84238330277839
              ],
              [
                -58.31689739859559,
                -34.84234695958575
              ],
              [
                -58.3167897632988,
                -34.84226435541856
              ],
              [
                -58.31673567050384,
                -34.8422365685525
              ],
              [
                -58.31672510882984,
                -34.84221839694196
              ],
              [
                -58.316638780653676,
                -34.84216312570049
              ],
              [
                -58.316487247848194,
                -34.84208892630391
              ],
              [
                -58.31628235881203,
                -34.84195080890012
              ],
              [
                -58.31627198080674,
                -34.84192362708744
              ],
              [
                -58.316284561195985,
                -34.84184268690856
              ],
              [
                -58.316319630750286,
                -34.84177395487425
              ],
              [
                -58.31632000479669,
                -34.84173412388657
              ],
              [
                -58.31628731415942,
                -34.84170753441617
              ],
              [
                -58.314394633294,
                -34.84409707910387
              ],
              [
                -58.31895570235094,
                -34.846476573271374
              ]
            ]
          ]
        ]
      },
      "properties": {
        "nomenclatura": "003040000000000000000000000000000000749000",
        "tipo": "Rural",
        "superficie_m2": 170584.75,
        "partida": "003075701",
        "fuente": "GeoARBA",
        "crs": "EPSG:5347",
        "operational_name": "749",
        "area_name": "La Tosquera",
        "source_value": "749",
        "normalized_value": "749",
        "source_document": "Biocorredor M. Rivadavia (1).pdf",
        "source_pages": [
          9
        ],
        "reference_status": "referencia_comunitaria",
        "source_note": "Parcela asociada a La Tosquera"
      }
    },
    {
      "type": "Feature",
      "geometry": {
        "type": "Polygon",
        "coordinates": [
          [
            [
              -58.31236014058318,
              -34.84666415659667
            ],
            [
              -58.31690551935633,
              -34.84908785275148
            ],
            [
              -58.31895570235094,
              -34.846476573271374
            ],
            [
              -58.314394633294,
              -34.84409707910387
            ],
            [
              -58.31236014058318,
              -34.84666415659667
            ]
          ]
        ]
      },
      "properties": {
        "nomenclatura": "003040000000000000000000000000000000750000",
        "tipo": "Rural",
        "superficie_m2": 169479.04,
        "partida": "003051878",
        "fuente": "GeoARBA",
        "crs": "EPSG:5347",
        "operational_name": "750",
        "area_name": "La Tosquera",
        "source_value": "750",
        "normalized_value": "750",
        "source_document": "Biocorredor M. Rivadavia (1).pdf",
        "source_pages": [
          9
        ],
        "reference_status": "referencia_comunitaria",
        "source_note": "Parcela asociada a La Tosquera"
      }
    },
    {
      "type": "Feature",
      "geometry": {
        "type": "MultiPolygon",
        "coordinates": [
          [
            [
              [
                -58.3072195895319,
                -34.836546975273194
              ],
              [
                -58.30511421160743,
                -34.839035347782435
              ],
              [
                -58.307449914454864,
                -34.84032127389872
              ],
              [
                -58.3074959241924,
                -34.83993743268035
              ],
              [
                -58.307538064847535,
                -34.83982797415931
              ],
              [
                -58.307612572431715,
                -34.83970733968681
              ],
              [
                -58.3078513247634,
                -34.83947182563286
              ],
              [
                -58.30800155646987,
                -34.83926716469343
              ],
              [
                -58.3080582277719,
                -34.83914736327934
              ],
              [
                -58.30811126144139,
                -34.83907176357155
              ],
              [
                -58.30858035162894,
                -34.83822622830119
              ],
              [
                -58.30859653532657,
                -34.838140472235445
              ],
              [
                -58.308624301913675,
                -34.83806560237482
              ],
              [
                -58.30866616297742,
                -34.83800174376892
              ],
              [
                -58.308722575374794,
                -34.837942593866664
              ],
              [
                -58.308778232221954,
                -34.8379043428941
              ],
              [
                -58.309086837839764,
                -34.83776443099307
              ],
              [
                -58.30917031513142,
                -34.83775017993039
              ],
              [
                -58.309359184600396,
                -34.83764961029954
              ],
              [
                -58.3072195895319,
                -34.836546975273194
              ]
            ]
          ],
          [
            [
              [
                -58.31238202185684,
                -34.839205009519574
              ],
              [
                -58.30945945721139,
                -34.83770138524475
              ],
              [
                -58.30932738891268,
                -34.837798598864175
              ],
              [
                -58.30888695067186,
                -34.83795470360396
              ],
              [
                -58.30877582892428,
                -34.838043195182735
              ],
              [
                -58.30873064026225,
                -34.838114758471455
              ],
              [
                -58.308582307771665,
                -34.838419127276424
              ],
              [
                -58.30817469808605,
                -34.839107435128135
              ],
              [
                -58.30801580224794,
                -34.83939363078709
              ],
              [
                -58.30788152827393,
                -34.83954497836343
              ],
              [
                -58.30785959664134,
                -34.839553685891794
              ],
              [
                -58.307725579888015,
                -34.83968710159772
              ],
              [
                -58.30763549805621,
                -34.83982094832136
              ],
              [
                -58.30757827414502,
                -34.839946329690775
              ],
              [
                -58.307546816944786,
                -34.84005188119589
              ],
              [
                -58.30751320269179,
                -34.840257443585365
              ],
              [
                -58.30752060790832,
                -34.840322888687105
              ],
              [
                -58.30753574281845,
                -34.84036852330978
              ],
              [
                -58.31026316391954,
                -34.84187020374134
              ],
              [
                -58.31238202185684,
                -34.839205009519574
              ]
            ]
          ]
        ]
      },
      "properties": {
        "nomenclatura": "003040000000000000000000000000000000746000",
        "tipo": "",
        "superficie_m2": 190682.54,
        "partida": "",
        "fuente": "GeoARBA",
        "crs": "EPSG:5347",
        "operational_name": "746",
        "area_name": "La Tosquera",
        "source_value": "746",
        "normalized_value": "746",
        "source_document": "Biocorredor M. Rivadavia (1).pdf",
        "source_pages": [
          9
        ],
        "reference_status": "referencia_comunitaria",
        "source_note": "Parcela asociada incorporada por la propuesta"
      }
    },
    {
      "type": "Feature",
      "geometry": {
        "type": "MultiPolygon",
        "coordinates": [
          [
            [
              [
                -58.30511420976017,
                -34.839035437883624
              ],
              [
                -58.302970339501314,
                -34.8415447742435
              ],
              [
                -58.30616370876813,
                -34.843335865591456
              ],
              [
                -58.30635720476397,
                -34.843229056517956
              ],
              [
                -58.30641105983084,
                -34.84312958547425
              ],
              [
                -58.30643799994644,
                -34.842967191497394
              ],
              [
                -58.30644345400654,
                -34.84287173294422
              ],
              [
                -58.30647080228539,
                -34.84280145432797
              ],
              [
                -58.30648053212368,
                -34.84266270427754
              ],
              [
                -58.306636490488366,
                -34.84192817877993
              ],
              [
                -58.30664593460001,
                -34.841685959013105
              ],
              [
                -58.3066879731431,
                -34.841544233986546
              ],
              [
                -58.306683107666444,
                -34.841397529736135
              ],
              [
                -58.30670311070749,
                -34.84124819757663
              ],
              [
                -58.30672134889692,
                -34.84120636225781
              ],
              [
                -58.306809249015615,
                -34.84110979845551
              ],
              [
                -58.30689230559821,
                -34.84099351947865
              ],
              [
                -58.30692906993776,
                -34.84090111046983
              ],
              [
                -58.30695174416063,
                -34.84078678469001
              ],
              [
                -58.30701409265975,
                -34.8406567883971
              ],
              [
                -58.30703335818801,
                -34.84063416436359
              ],
              [
                -58.30709646043076,
                -34.84060079459499
              ],
              [
                -58.30725153565882,
                -34.840576185609315
              ],
              [
                -58.307382938558156,
                -34.840570534104295
              ],
              [
                -58.30742532240238,
                -34.84052930512301
              ],
              [
                -58.307424968054185,
                -34.840477206816175
              ],
              [
                -58.307449914454864,
                -34.84032127389872
              ],
              [
                -58.30511420976017,
                -34.839035437883624
              ]
            ]
          ],
          [
            [
              [
                -58.30822965585276,
                -34.844439208307186
              ],
              [
                -58.31026316391954,
                -34.84187020374134
              ],
              [
                -58.30753574281845,
                -34.84036852330978
              ],
              [
                -58.30749979098675,
                -34.84057612607001
              ],
              [
                -58.307433298302215,
                -34.840620264095136
              ],
              [
                -58.307324014503955,
                -34.84061874299972
              ],
              [
                -58.30721417717911,
                -34.840644252183246
              ],
              [
                -58.30711164072658,
                -34.84070825697763
              ],
              [
                -58.30705720323143,
                -34.840836290534675
              ],
              [
                -58.30704434646801,
                -34.84093029419613
              ],
              [
                -58.307021197886236,
                -34.84099306078273
              ],
              [
                -58.30695359735472,
                -34.841091259269085
              ],
              [
                -58.30681931859484,
                -34.8412426054961
              ],
              [
                -58.30679635430818,
                -34.841296361906565
              ],
              [
                -58.30678321108148,
                -34.84140433121293
              ],
              [
                -58.306793585873265,
                -34.84143151374609
              ],
              [
                -58.306790632855716,
                -34.841575675704775
              ],
              [
                -58.306741012594514,
                -34.841863390932815
              ],
              [
                -58.30664509345243,
                -34.84227663909101
              ],
              [
                -58.30651084923025,
                -34.8429597341135
              ],
              [
                -58.30648548432145,
                -34.843130621974254
              ],
              [
                -58.30642862541369,
                -34.843237982384245
              ],
              [
                -58.30623954335643,
                -34.84336945769306
              ],
              [
                -58.30822965585276,
                -34.844439208307186
              ]
            ]
          ]
        ]
      },
      "properties": {
        "nomenclatura": "003040000000000000000000000000000000747000",
        "tipo": "",
        "superficie_m2": 192499.98,
        "partida": "",
        "fuente": "GeoARBA",
        "crs": "EPSG:5347",
        "operational_name": "747",
        "area_name": "La Tosquera",
        "source_value": "747",
        "normalized_value": "747",
        "source_document": "Biocorredor M. Rivadavia (1).pdf",
        "source_pages": [
          9
        ],
        "reference_status": "referencia_comunitaria",
        "source_note": "Parcela asociada incorporada por la propuesta"
      }
    },
    {
      "type": "Feature",
      "geometry": {
        "type": "MultiPolygon",
        "coordinates": [
          [
            [
              [
                -58.32760054881152,
                -34.83687969809037
              ],
              [
                -58.33141262043982,
                -34.8324121711182
              ],
              [
                -58.32893564202637,
                -34.83112088539993
              ],
              [
                -58.32570204789353,
                -34.835357462408155
              ],
              [
                -58.32595684415028,
                -34.83546010998606
              ],
              [
                -58.3263127193797,
                -34.83569933911341
              ],
              [
                -58.32633457505199,
                -34.83569963989157
              ],
              [
                -58.32650777905793,
                -34.83578313797674
              ],
              [
                -58.32657225193191,
                -34.835838101531486
              ],
              [
                -58.32664674094462,
                -34.83593826652892
              ],
              [
                -58.32669973908287,
                -34.836020110327446
              ],
              [
                -58.32670957282683,
                -34.83607432202046
              ],
              [
                -58.32676238875884,
                -34.836165176017
              ],
              [
                -58.32692320759084,
                -34.836320604977836
              ],
              [
                -58.326945063434145,
                -34.83632090565096
              ],
              [
                -58.326998791410674,
                -34.83636670843523
              ],
              [
                -58.32709604886851,
                -34.83642212271842
              ],
              [
                -58.3271503239278,
                -34.836440894766724
              ],
              [
                -58.32717181518837,
                -34.83645921584869
              ],
              [
                -58.3271936710711,
                -34.836459516478186
              ],
              [
                -58.32734556852028,
                -34.83651568212542
              ],
              [
                -58.32736705984429,
                -34.83653400317443
              ],
              [
                -58.32738891574898,
                -34.8365343037694
              ],
              [
                -58.32745338979347,
                -34.83658926688382
              ],
              [
                -58.32760054881152,
                -34.83687969809037
              ]
            ]
          ],
          [
            [
              [
                -58.32556717368401,
                -34.835540366492545
              ],
              [
                -58.3274587582485,
                -34.836864229045645
              ],
              [
                -58.3274705064992,
                -34.83682383332339
              ],
              [
                -58.32737543577556,
                -34.83666029662371
              ],
              [
                -58.3272575980261,
                -34.836541510365315
              ],
              [
                -58.32722517877518,
                -34.83652303898695
              ],
              [
                -58.32717072133528,
                -34.83651327719455
              ],
              [
                -58.32700789607834,
                -34.83645696100239
              ],
              [
                -58.32692138423926,
                -34.83641070721126
              ],
              [
                -58.32689952837249,
                -34.836410406533204
              ],
              [
                -58.326802635762625,
                -34.83633697165122
              ],
              [
                -58.32678132696745,
                -34.83630964028411
              ],
              [
                -58.32672924034906,
                -34.83618274540384
              ],
              [
                -58.32658062662044,
                -34.83596439501275
              ],
              [
                -58.32652689913556,
                -34.83591859205484
              ],
              [
                -58.32609470993675,
                -34.8356693004545
              ],
              [
                -58.3260515458896,
                -34.835641668147396
              ],
              [
                -58.32595520223915,
                -34.835541201967594
              ],
              [
                -58.32583609098582,
                -34.835485485953306
              ],
              [
                -58.32571661497597,
                -34.83544779026472
              ],
              [
                -58.32566252337787,
                -34.835420007382375
              ],
              [
                -58.32556717368401,
                -34.835540366492545
              ]
            ]
          ]
        ]
      },
      "properties": {
        "nomenclatura": "00304000000000000000000000000000000069000A",
        "tipo": "Rural",
        "superficie_m2": 148593.21,
        "partida": "003000363",
        "fuente": "GeoARBA",
        "crs": "EPSG:5347",
        "operational_name": "690A",
        "area_name": "Ex Campo Sojero / Bosque / Arroyo",
        "source_value": "690a",
        "normalized_value": "690A",
        "source_document": "Biocorredor M. Rivadavia (1).pdf",
        "source_pages": [
          10
        ],
        "reference_status": "referencia_comunitaria",
        "source_note": "Referencia comunitaria"
      }
    },
    {
      "type": "Feature",
      "geometry": {
        "type": "MultiPolygon",
        "coordinates": [
          [
            [
              [
                -58.33141262043982,
                -34.8324121711182
              ],
              [
                -58.32760054881152,
                -34.83687969809037
              ],
              [
                -58.32759909069098,
                -34.83695177989557
              ],
              [
                -58.32758788928231,
                -34.83696514495419
              ],
              [
                -58.32842852395837,
                -34.837558023597246
              ],
              [
                -58.32866857772878,
                -34.83757934837181
              ],
              [
                -58.32890899589674,
                -34.837582652214515
              ],
              [
                -58.32899696704672,
                -34.83755682280081
              ],
              [
                -58.32906260845626,
                -34.83754871198549
              ],
              [
                -58.329335082555055,
                -34.83758850635827
              ],
              [
                -58.32954180622796,
                -34.83763640973573
              ],
              [
                -58.329585518668885,
                -34.8376370101568
              ],
              [
                -58.329878575437746,
                -34.83774017517329
              ],
              [
                -58.329943416131584,
                -34.837777116560545
              ],
              [
                -58.32995398023365,
                -34.83779528710214
              ],
              [
                -58.32998640061202,
                -34.83781375778071
              ],
              [
                -58.33007218768484,
                -34.83789605041367
              ],
              [
                -58.33009404397967,
                -34.837896350532795
              ],
              [
                -58.330126464429604,
                -34.837914821175765
              ],
              [
                -58.33021370764609,
                -34.83792503182654
              ],
              [
                -58.33025760223687,
                -34.8379166217741
              ],
              [
                -58.330599286075284,
                -34.83777710885686
              ],
              [
                -58.33348924177048,
                -34.833499641500985
              ],
              [
                -58.33141262043982,
                -34.8324121711182
              ]
            ]
          ],
          [
            [
              [
                -58.328574049429314,
                -34.83765916382179
              ],
              [
                -58.32908056830422,
                -34.838017620881146
              ],
              [
                -58.33026134207261,
                -34.83827267614603
              ],
              [
                -58.33053135189658,
                -34.837893341853814
              ],
              [
                -58.33039966820788,
                -34.837918572262836
              ],
              [
                -58.33032244324373,
                -34.83795356296694
              ],
              [
                -58.33019057741399,
                -34.83798780338089
              ],
              [
                -58.33000589076376,
                -34.837931190973634
              ],
              [
                -58.329930303794015,
                -34.83788508930865
              ],
              [
                -58.32979078637112,
                -34.83775699499199
              ],
              [
                -58.32976893011651,
                -34.83775669481938
              ],
              [
                -58.32972576372542,
                -34.83772906375982
              ],
              [
                -58.32947478104247,
                -34.83770759094
              ],
              [
                -58.32934418985995,
                -34.83767875880959
              ],
              [
                -58.32901736631887,
                -34.83762920495998
              ],
              [
                -58.32891883124024,
                -34.83763686376209
              ],
              [
                -58.32880882162456,
                -34.837671403001565
              ],
              [
                -58.328574049429314,
                -34.83765916382179
              ]
            ]
          ]
        ]
      },
      "properties": {
        "nomenclatura": "00304000000000000000000000000000000069000B",
        "tipo": "Rural",
        "superficie_m2": 159520.21,
        "partida": "003114191",
        "fuente": "GeoARBA",
        "crs": "EPSG:5347",
        "operational_name": "690B",
        "area_name": "Ex Campo Sojero / Bosque / Arroyo",
        "source_value": "690b",
        "normalized_value": "690B",
        "source_document": "Biocorredor M. Rivadavia (1).pdf",
        "source_pages": [
          10
        ],
        "reference_status": "referencia_comunitaria",
        "source_note": "Referencia comunitaria"
      }
    },
    {
      "type": "Feature",
      "geometry": {
        "type": "Polygon",
        "coordinates": [
          [
            [
              -58.332715567450144,
              -34.838806555034786
            ],
            [
              -58.33739106921373,
              -34.84004222291133
            ],
            [
              -58.339635344695324,
              -34.83687786569575
            ],
            [
              -58.33348924177048,
              -34.833499641500985
            ],
            [
              -58.330599286075284,
              -34.83777710885686
            ],
            [
              -58.33053135189658,
              -34.837893341853814
            ],
            [
              -58.33026134207261,
              -34.83827267614603
            ],
            [
              -58.332715567450144,
              -34.838806555034786
            ]
          ]
        ]
      },
      "properties": {
        "nomenclatura": "00304000000000000000000000000000000069000C",
        "tipo": "Rural",
        "superficie_m2": 336152.09,
        "partida": "003114192",
        "fuente": "GeoARBA",
        "crs": "EPSG:5347",
        "operational_name": "690C",
        "area_name": "Ex Campo Sojero / Bosque / Arroyo",
        "source_value": "690c",
        "normalized_value": "690C",
        "source_document": "Biocorredor M. Rivadavia (1).pdf",
        "source_pages": [
          10
        ],
        "reference_status": "referencia_comunitaria",
        "source_note": "Referencia comunitaria"
      }
    },
    {
      "type": "Feature",
      "geometry": {
        "type": "MultiPolygon",
        "coordinates": [
          [
            [
              [
                -58.32556717368401,
                -34.835540366492545
              ],
              [
                -58.323753758311696,
                -34.83791727700861
              ],
              [
                -58.326220902448966,
                -34.83914391224126
              ],
              [
                -58.32900323999536,
                -34.84056698104248
              ],
              [
                -58.329228558545616,
                -34.840663358649735
              ],
              [
                -58.3306947462895,
                -34.838733769158885
              ],
              [
                -58.330840731469586,
                -34.838812381195524
              ],
              [
                -58.329375734872485,
                -34.8407209891581
              ],
              [
                -58.32946070066103,
                -34.8407574862719
              ],
              [
                -58.33083086561224,
                -34.84146649562677
              ],
              [
                -58.332715567450144,
                -34.838806555034786
              ],
              [
                -58.32908056830422,
                -34.838017620881146
              ],
              [
                -58.328574049429314,
                -34.83765916382179
              ],
              [
                -58.328306675201624,
                -34.837637463312504
              ],
              [
                -58.328230725083856,
                -34.837609381078636
              ],
              [
                -58.32816515649026,
                -34.83760847971154
              ],
              [
                -58.32808829536823,
                -34.83762544852566
              ],
              [
                -58.32788994942634,
                -34.83770383611985
              ],
              [
                -58.32757102926627,
                -34.837798590754055
              ],
              [
                -58.32750527826339,
                -34.83780669925099
              ],
              [
                -58.32737450540596,
                -34.837786875243935
              ],
              [
                -58.32727688157284,
                -34.83774948159019
              ],
              [
                -58.32723371605562,
                -34.837721849669606
              ],
              [
                -58.327169423627176,
                -34.83765787620501
              ],
              [
                -58.32713809789044,
                -34.8375853434595
              ],
              [
                -58.32715157843456,
                -34.83745935066451
              ],
              [
                -58.32728636137036,
                -34.83728094997892
              ],
              [
                -58.3274105802606,
                -34.837084378377085
              ],
              [
                -58.32745538605307,
                -34.83703091820708
              ],
              [
                -58.32748981060751,
                -34.836950277054626
              ],
              [
                -58.32749090426978,
                -34.836896215703824
              ],
              [
                -58.32748034082481,
                -34.83687804496437
              ],
              [
                -58.32556717368401,
                -34.835540366492545
              ]
            ]
          ],
          [
            [
              [
                -58.32758788928231,
                -34.83696514495419
              ],
              [
                -58.32756521304987,
                -34.83700539040598
              ],
              [
                -58.32756484851083,
                -34.837023410856645
              ],
              [
                -58.32749745763263,
                -34.83711261139336
              ],
              [
                -58.32740675221932,
                -34.837273593089
              ],
              [
                -58.32729236727777,
                -34.837524376322015
              ],
              [
                -58.32729072655028,
                -34.83760546833141
              ],
              [
                -58.32730110773671,
                -34.83763264930994
              ],
              [
                -58.327333162831984,
                -34.83766914112438
              ],
              [
                -58.327419858491574,
                -34.83770638443381
              ],
              [
                -58.3275180291827,
                -34.83771674730119
              ],
              [
                -58.32781454614132,
                -34.83764872295166
              ],
              [
                -58.32807864279069,
                -34.83756222669948
              ],
              [
                -58.32814439355482,
                -34.83755411788498
              ],
              [
                -58.32842852395837,
                -34.837558023597246
              ],
              [
                -58.32758788928231,
                -34.83696514495419
              ]
            ]
          ]
        ]
      },
      "properties": {
        "nomenclatura": "00304000000000000000000000000000000069100A",
        "tipo": "Rural",
        "superficie_m2": 208274.55,
        "partida": "003103485",
        "fuente": "GeoARBA",
        "crs": "EPSG:5347",
        "operational_name": "691A",
        "area_name": "Ex Campo Sojero / Bosque / Arroyo",
        "source_value": "691a",
        "normalized_value": "691A",
        "source_document": "Biocorredor M. Rivadavia (1).pdf",
        "source_pages": [
          10
        ],
        "reference_status": "referencia_comunitaria",
        "source_note": "Referencia comunitaria"
      }
    },
    {
      "type": "Feature",
      "geometry": {
        "type": "Polygon",
        "coordinates": [
          [
            [
              -58.34018030093974,
              -34.83695740661909
            ],
            [
              -58.3455611849338,
              -34.82997823813396
            ],
            [
              -58.34307832959609,
              -34.82870518364087
            ],
            [
              -58.33804389251684,
              -34.835567304431315
            ],
            [
              -58.34002253073481,
              -34.8366488196584
            ],
            [
              -58.33988813764047,
              -34.83680921472526
            ],
            [
              -58.34018030093974,
              -34.83695740661909
            ]
          ]
        ]
      },
      "properties": {
        "nomenclatura": "003040000000000000000000000000000000672000",
        "tipo": "Rural",
        "superficie_m2": 230811.94,
        "partida": "003017327",
        "fuente": "GeoARBA",
        "crs": "EPSG:5347",
        "operational_name": "672",
        "area_name": "Corredor Laprida / humedal",
        "source_value": "672",
        "normalized_value": "672",
        "source_document": "Biocorredor M. Rivadavia (1).pdf",
        "source_pages": [
          11
        ],
        "reference_status": "referencia_comunitaria",
        "source_note": "Propuesta de neo humedal"
      }
    },
    {
      "type": "Feature",
      "geometry": {
        "type": "Polygon",
        "coordinates": [
          [
            [
              -58.3455611849338,
              -34.82997823813396
            ],
            [
              -58.34018030093974,
              -34.83695740661909
            ],
            [
              -58.34264221780222,
              -34.83819418534066
            ],
            [
              -58.3479958641622,
              -34.831210030930855
            ],
            [
              -58.3455611849338,
              -34.82997823813396
            ]
          ]
        ]
      },
      "properties": {
        "nomenclatura": "003040000000000000000000000000000000673000",
        "tipo": "Rural",
        "superficie_m2": 240821.2,
        "partida": "003000288",
        "fuente": "GeoARBA",
        "crs": "EPSG:5347",
        "operational_name": "673",
        "area_name": "Corredor Laprida / humedal",
        "source_value": "673",
        "normalized_value": "673",
        "source_document": "Biocorredor M. Rivadavia (1).pdf",
        "source_pages": [
          11
        ],
        "reference_status": "referencia_comunitaria",
        "source_note": "Propuesta de neo humedal"
      }
    },
    {
      "type": "Feature",
      "geometry": {
        "type": "Polygon",
        "coordinates": [
          [
            [
              -58.337906894352614,
              -34.8354928795547
            ],
            [
              -58.34012928383098,
              -34.832463851859494
            ],
            [
              -58.33773236004754,
              -34.83122854339852
            ],
            [
              -58.335492232332584,
              -34.83418049563343
            ],
            [
              -58.337906894352614,
              -34.8354928795547
            ]
          ]
        ]
      },
      "properties": {
        "nomenclatura": "00304000000000000000000000000000000067100Z",
        "tipo": "Urbano",
        "superficie_m2": 101909.02,
        "partida": "003149800",
        "fuente": "GeoARBA",
        "crs": "EPSG:5347",
        "operational_name": "671Z",
        "area_name": "Corredor Laprida / humedal",
        "source_value": "671z",
        "normalized_value": "671Z",
        "source_document": "Biocorredor M. Rivadavia (1).pdf",
        "source_pages": [
          11
        ],
        "reference_status": "referencia_comunitaria",
        "source_note": "Propuesta de neo humedal"
      }
    }
  ]
}
