{"type":"FeatureCollection","features":[{"type":"Feature","properties":{"zone":"recuperacion","label":"Zona de Recuperación","color":"#9b6a45"},"geometry":{"type":"MultiPolygon","coordinates":[[[[-58.33446,-34.8267],[-58.3358,-34.82481],[-58.33839,-34.82615],[-58.33705,-34.82791],[-58.33446,-34.8267]]],[[[-58.32504,-34.82814],[-58.33133,-34.83138],[-58.33391,-34.83314],[-58.33195,-34.83236],[-58.32504,-34.82814]]],[[[-58.34322,-34.83837],[-58.34041,-34.83712],[-58.34012,-34.83649],[-58.34322,-34.83837]]],[[[-58.35028,-34.84672],[-58.34831,-34.84892],[-58.34659,-34.84702],[-58.35009,-34.84239],[-58.34988,-34.842],[-58.35077,-34.84206],[-58.35306,-34.84355],[-58.3522,-34.8434],[-58.35028,-34.84672]]],[[[-58.3554,-34.85772],[-58.3541,-34.85768],[-58.35332,-34.85701],[-58.3537,-34.85683],[-58.35425,-34.85746],[-58.35478,-34.85712],[-58.3554,-34.85772]]],[[[-58.33611,-34.84724],[-58.33481,-34.8491],[-58.33425,-34.84898],[-58.33342,-34.84967],[-58.33615,-34.85133],[-58.33432,-34.85415],[-58.33705,-34.85559],[-58.33903,-34.85294],[-58.34158,-34.85441],[-58.33987,-34.8569],[-58.34104,-34.85826],[-58.33925,-34.86053],[-58.3463,-34.86453],[-58.34683,-34.86438],[-58.35018,-34.85998],[-58.35023,-34.85911],[-58.35333,-34.86114],[-58.35423,-34.8612],[-58.35448,-34.86192],[-58.3539,-34.86309],[-58.35398,-34.86503],[-58.35247,-34.86827],[-58.35056,-34.87131],[-58.34856,-34.87263],[-58.34866,-34.87357],[-58.34175,-34.86964],[-58.33901,-34.87304],[-58.33498,-34.87097],[-58.33257,-34.87448],[-58.33519,-34.87598],[-58.33519,-34.87633],[-58.33012,-34.88288],[-58.32949,-34.88296],[-58.32801,-34.88188],[-58.33007,-34.87452],[-58.32866,-34.86954],[-58.32906,-34.86565],[-58.32803,-34.8624],[-58.32806,-34.86059],[-58.32637,-34.85689],[-58.32691,-34.85581],[-58.32649,-34.85593],[-58.32469,-34.85464],[-58.32433,-34.85357],[-58.32493,-34.85323],[-58.32412,-34.85301],[-58.3226,-34.85032],[-58.32481,-34.8471],[-58.32526,-34.84708],[-58.3261,-34.84579],[-58.32692,-34.84568],[-58.32757,-34.8448],[-58.32717,-34.84418],[-58.3282,-34.84298],[-58.32864,-34.84303],[-58.33021,-34.84056],[-58.33114,-34.84108],[-58.33219,-34.84063],[-58.33485,-34.84191],[-58.33249,-34.84522],[-58.3346,-34.84603],[-58.33611,-34.84724]]],[[[-58.35469,-34.86686],[-58.35343,-34.86879],[-58.35605,-34.87032],[-58.35726,-34.86959],[-58.35276,-34.87599],[-58.3491,-34.87391],[-58.34889,-34.8728],[-58.35089,-34.87135],[-58.35257,-34.86879],[-58.35431,-34.86495],[-58.35423,-34.8632],[-58.35496,-34.86197],[-58.3574,-34.86343],[-58.35732,-34.86795],[-58.35469,-34.86686]]],[[[-58.32253,-34.82677],[-58.31875,-34.82501],[-58.31884,-34.82465],[-58.32253,-34.82677]]],[[[-58.31325,-34.83102],[-58.31497,-34.82876],[-58.31885,-34.83072],[-58.31763,-34.83249],[-58.31602,-34.8325],[-58.31325,-34.83102]]],[[[-58.31277,-34.83281],[-58.31202,-34.83331],[-58.31143,-34.83316],[-58.312,-34.83247],[-58.31277,-34.83281]]],[[[-58.31515,-34.83592],[-58.3136,-34.83461],[-58.3133,-34.83499],[-58.31174,-34.83423],[-58.31116,-34.83344],[-58.31238,-34.83383],[-58.31333,-34.83309],[-58.31618,-34.8346],[-58.31515,-34.83592]]],[[[-58.32389,-34.85349],[-58.32424,-34.8545],[-58.3228,-34.85362],[-58.32389,-34.85349]]],[[[-58.31017,-34.84367],[-58.31387,-34.83878],[-58.31561,-34.83952],[-58.31659,-34.84106],[-58.31689,-34.84085],[-58.31657,-34.84032],[-58.32008,-34.84227],[-58.32118,-34.84076],[-58.32199,-34.8414],[-58.32275,-34.84087],[-58.32389,-34.84152],[-58.32421,-34.8405],[-58.32346,-34.84064],[-58.32325,-34.84002],[-58.3244,-34.83822],[-58.32562,-34.83864],[-58.32607,-34.83821],[-58.32689,-34.83865],[-58.326,-34.84037],[-58.32707,-34.83895],[-58.32973,-34.84032],[-58.32939,-34.8408],[-58.32828,-34.84018],[-58.32783,-34.84039],[-58.32778,-34.84078],[-58.329,-34.8414],[-58.32824,-34.8426],[-58.32713,-34.84211],[-58.32718,-34.84127],[-58.32596,-34.8404],[-58.32517,-34.84124],[-58.32457,-34.84129],[-58.32445,-34.84174],[-58.32493,-34.84194],[-58.32447,-34.84261],[-58.3254,-34.84302],[-58.32422,-34.84434],[-58.32496,-34.84504],[-58.3246,-34.84629],[-58.32389,-34.84649],[-58.3213,-34.84489],[-58.32074,-34.84529],[-58.32033,-34.84493],[-58.32039,-34.84586],[-58.3186,-34.84868],[-58.31989,-34.84943],[-58.31981,-34.84975],[-58.32077,-34.84994],[-58.3207,-34.85026],[-58.32144,-34.85032],[-58.32136,-34.85064],[-58.32237,-34.8507],[-58.32363,-34.853],[-58.32207,-34.85288],[-58.32112,-34.85389],[-58.3196,-34.85329],[-58.31885,-34.85394],[-58.3189,-34.8552],[-58.31964,-34.85571],[-58.31769,-34.85823],[-58.31799,-34.85846],[-58.31848,-34.85803],[-58.3204,-34.85922],[-58.3213,-34.85873],[-58.32219,-34.85721],[-58.32012,-34.85595],[-58.32069,-34.85513],[-58.32284,-34.85617],[-58.32523,-34.85811],[-58.32629,-34.85724],[-58.32642,-34.85844],[-58.32776,-34.86074],[-58.32804,-34.86433],[-58.32869,-34.86567],[-58.32833,-34.8695],[-58.32971,-34.87413],[-58.32764,-34.8817],[-58.3146,-34.87426],[-58.31892,-34.86775],[-58.31671,-34.86616],[-58.31812,-34.86414],[-58.31915,-34.86479],[-58.32072,-34.86281],[-58.32156,-34.86354],[-58.32201,-34.86336],[-58.32462,-34.85913],[-58.32252,-34.86183],[-58.32174,-34.86142],[-58.32236,-34.86038],[-58.32099,-34.85949],[-58.32039,-34.85964],[-58.31902,-34.86143],[-58.31736,-34.86064],[-58.31655,-34.85974],[-58.31365,-34.86381],[-58.31286,-34.86427],[-58.30861,-34.86171],[-58.30991,-34.85975],[-58.30796,-34.85837],[-58.31001,-34.85621],[-58.30912,-34.85602],[-58.30639,-34.85412],[-58.30697,-34.85279],[-58.30676,-34.85185],[-58.30587,-34.85407],[-58.30271,-34.85813],[-58.29532,-34.85396],[-58.29974,-34.84775],[-58.30418,-34.85015],[-58.30524,-34.84912],[-58.30488,-34.8485],[-58.30096,-34.84624],[-58.30496,-34.84085],[-58.30803,-34.84253],[-58.30799,-34.84298],[-58.30844,-34.84277],[-58.31017,-34.84367]]]]}}]}