{"type":"FeatureCollection","features":[{"type":"Feature","properties":{"zone":"uso_especifico","label":"Uso Específico","color":"#73736d"},"geometry":{"type":"MultiPolygon","coordinates":[[[[-58.33768,-34.82851],[-58.33796,-34.82927],[-58.3377,-34.82932],[-58.33781,-34.82978],[-58.33743,-34.82993],[-58.33732,-34.82963],[-58.33771,-34.8291],[-58.33671,-34.82835],[-58.33687,-34.82797],[-58.3375,-34.82809],[-58.33764,-34.82842],[-58.33816,-34.82837],[-58.33768,-34.82851]]],[[[-58.33755,-34.83167],[-58.33771,-34.83113],[-58.33723,-34.83095],[-58.3372,-34.8305],[-58.33764,-34.83064],[-58.33745,-34.83096],[-58.33831,-34.83079],[-58.33866,-34.83016],[-58.33849,-34.83112],[-58.3382,-34.83101],[-58.33789,-34.83162],[-58.33755,-34.83167]]],[[[-58.34288,-34.85294],[-58.3421,-34.85269],[-58.34161,-34.85296],[-58.34237,-34.85182],[-58.34217,-34.85262],[-58.34352,-34.85251],[-58.34271,-34.85371],[-58.34288,-34.85294]]],[[[-58.34325,-34.85495],[-58.34319,-34.85453],[-58.34383,-34.85397],[-58.34357,-34.8536],[-58.34433,-34.85321],[-58.34498,-34.85197],[-58.34546,-34.85218],[-58.34477,-34.85326],[-58.34495,-34.85391],[-58.34435,-34.85389],[-58.34374,-34.85483],[-58.34325,-34.85495]]],[[[-58.35648,-34.86008],[-58.35625,-34.86059],[-58.35614,-34.86033],[-58.35555,-34.86034],[-58.35642,-34.85947],[-58.35668,-34.85964],[-58.35659,-34.86008],[-58.35705,-34.85932],[-58.35746,-34.8596],[-58.3573,-34.86007],[-58.35678,-34.86009],[-58.35689,-34.86042],[-58.35648,-34.86008]]],[[[-58.34993,-34.85923],[-58.35053,-34.85931],[-58.34943,-34.86063],[-58.34922,-34.85943],[-58.34966,-34.85967],[-58.34993,-34.85923]]],[[[-58.33989,-34.85994],[-58.33958,-34.86064],[-58.33928,-34.86053],[-58.34036,-34.85914],[-58.34039,-34.85934],[-58.34109,-34.85936],[-58.34108,-34.86001],[-58.33989,-34.85994]]],[[[-58.34237,-34.87263],[-58.34319,-34.87269],[-58.34329,-34.87311],[-58.34262,-34.87357],[-58.34162,-34.87309],[-58.34248,-34.87299],[-58.34237,-34.87263]]],[[[-58.32534,-34.82341],[-58.3252,-34.82318],[-58.32493,-34.8233],[-58.3249,-34.82288],[-58.32352,-34.82303],[-58.32349,-34.82274],[-58.32289,-34.82272],[-58.32162,-34.82307],[-58.32157,-34.82364],[-58.32083,-34.82362],[-58.32077,-34.8223],[-58.32119,-34.82208],[-58.32112,-34.82176],[-58.32165,-34.82097],[-58.32225,-34.82073],[-58.32215,-34.82044],[-58.3226,-34.81984],[-58.32361,-34.82013],[-58.32497,-34.82124],[-58.32623,-34.8215],[-58.32672,-34.8211],[-58.32668,-34.82149],[-58.32566,-34.82219],[-58.32576,-34.82271],[-58.32534,-34.82341]]],[[[-58.32111,-34.8245],[-58.32294,-34.82417],[-58.32309,-34.8244],[-58.32406,-34.82456],[-58.32409,-34.82505],[-58.32378,-34.82555],[-58.32333,-34.8256],[-58.32302,-34.8265],[-58.32257,-34.82664],[-58.31928,-34.82467],[-58.32,-34.82388],[-58.32038,-34.82396],[-58.32041,-34.82435],[-58.32111,-34.8245]]],[[[-58.33509,-34.82695],[-58.33576,-34.82742],[-58.33508,-34.82762],[-58.33445,-34.82738],[-58.33408,-34.8275],[-58.33375,-34.827],[-58.33427,-34.82695],[-58.33473,-34.82648],[-58.33408,-34.82727],[-58.33509,-34.82695]]],[[[-58.33238,-34.82844],[-58.33246,-34.82815],[-58.33279,-34.82852],[-58.33305,-34.8285],[-58.33295,-34.8282],[-58.33358,-34.82842],[-58.33351,-34.82796],[-58.33377,-34.82791],[-58.33377,-34.82823],[-58.33406,-34.82827],[-58.33418,-34.82795],[-58.33421,-34.82853],[-58.33316,-34.82869],[-58.33319,-34.82914],[-58.33298,-34.82872],[-58.33238,-34.82844]]],[[[-58.32923,-34.82763],[-58.32884,-34.82823],[-58.32925,-34.82853],[-58.32996,-34.82853],[-58.3298,-34.82917],[-58.32916,-34.82937],[-58.32958,-34.82867],[-58.32846,-34.8288],[-58.32873,-34.82823],[-58.32781,-34.82788],[-58.32777,-34.82762],[-58.32811,-34.82785],[-58.32863,-34.82771],[-58.32881,-34.8281],[-58.32885,-34.82765],[-58.32923,-34.82763]]],[[[-58.33215,-34.83111],[-58.33283,-34.83071],[-58.33316,-34.83108],[-58.33293,-34.83168],[-58.3327,-34.83168],[-58.33271,-34.83123],[-58.331,-34.83117],[-58.33071,-34.83074],[-58.33093,-34.83056],[-58.33134,-34.83092],[-58.3319,-34.83062],[-58.33215,-34.83111]]],[[[-58.3264,-34.84338],[-58.32641,-34.84302],[-58.32585,-34.84297],[-58.32578,-34.84268],[-58.32536,-34.84289],[-58.32544,-34.84248],[-58.32473,-34.84274],[-58.32545,-34.84193],[-58.32605,-34.84204],[-58.326,-34.84243],[-58.32645,-34.84244],[-58.3264,-34.84338]]],[[[-58.31768,-34.84987],[-58.31739,-34.84967],[-58.31735,-34.84935],[-58.31765,-34.84926],[-58.3174,-34.8488],[-58.31706,-34.84898],[-58.31658,-34.84881],[-58.31688,-34.84869],[-58.317,-34.84817],[-58.3177,-34.84849],[-58.31773,-34.84891],[-58.31822,-34.84876],[-58.31781,-34.8491],[-58.31768,-34.84987]]],[[[-58.3081,-34.85689],[-58.30776,-34.85707],[-58.30769,-34.85675],[-58.30724,-34.85676],[-58.30725,-34.85644],[-58.3068,-34.85636],[-58.30673,-34.85607],[-58.30806,-34.85669],[-58.30851,-34.85664],[-58.30846,-34.85735],[-58.30805,-34.8574],[-58.3081,-34.85689]]]]}}]}