{"type":"FeatureCollection","name":"Ordenanza 11.819/20 — fragmentos parcelarios limítrofes sin asignación","metadata":{"status":"unresolved-boundary-fragments","source":"Ordenanza 11.819/20 Anexo I (escaneo oficial) + geometría parcelaria GeoARBA actual","method":"Registro afín optimizado contra bordes catastrales del Anexo; clasificación cromática interior; ajuste final a la geometría exacta de la parcela GeoARBA. Parcelas limítrofes no concluyentes quedan excluidas y publicadas aparte como ambiguas.","georeference":{"model":"affine lon/lat -> Annex I pixels","centerLon":-58.332154038019,"centerLat":-34.85482557782,"coefficients":[797.206637985932,25546.561850621405,560.984672341542,1172.653092874896,433.107896086147,-30914.092335391546],"validationParcelCount":25,"meanParcelMedianResidualPx":0.4871,"medianParcelMedianResidualPx":0.3749,"approxMetersPerPixel":3.5756,"meanParcelMedianResidualM":1.742,"medianParcelMedianResidualM":1.34},"classificationThresholds":{"fraction":0.7,"coverage":0.3,"dominance":0.65,"margin":0.3},"unresolvedBoundaryAreaHa":4.856971,"warning":"Reconstrucción geoespacial; GeoARBA actual puede diferir del estado catastral de 2020. No sustituye mensura ni constancia administrativa del Municipio.","areaHa":4.856971,"parcelCount":16},"features":[{"type":"Feature","properties":{"nomenclatura":"003040B00000000000000000000002000000006000","partida":"003099729","tipo":"Urbano","superficie_m2":1720.98,"candidate_zone":"productiva","source_fraction":0.6037,"source_coverage":1.0,"source_dominance":0.6037,"source_margin":0.3659,"vectorization_status":"unresolved-boundary-fragment"},"geometry":{"type":"Polygon","coordinates":[[[-58.3532047,-34.8428187],[-58.3529203,-34.8426811],[-58.3526252,-34.8430732],[-58.3526468,-34.8431467],[-58.3528794,-34.8432589],[-58.3532047,-34.8428187]]]}},{"type":"Feature","properties":{"nomenclatura":"003040B00000000000000000000002000000007000","partida":"003099730","tipo":"Urbano","superficie_m2":1701.37,"candidate_zone":"productiva","source_fraction":0.5855,"source_coverage":1.0,"source_dominance":0.5855,"source_margin":0.3421,"vectorization_status":"unresolved-boundary-fragment"},"geometry":{"type":"Polygon","coordinates":[[[-58.3532047,-34.8428187],[-58.3528794,-34.8432589],[-58.3531586,-34.8433936],[-58.3534868,-34.8429554],[-58.3532047,-34.8428187]]]}},{"type":"Feature","properties":{"nomenclatura":"003040B00000000000000000000002010000006000","partida":"003099736","tipo":"Urbano","superficie_m2":2343.27,"candidate_zone":"productiva","source_fraction":0.5871,"source_coverage":1.0,"source_dominance":0.5871,"source_margin":0.2886,"vectorization_status":"unresolved-boundary-fragment"},"geometry":{"type":"Polygon","coordinates":[[[-58.3520994,-34.8422864],[-58.351727,-34.8421009],[-58.351419,-34.8425059],[-58.3514393,-34.8425836],[-58.3517573,-34.8427378],[-58.3520994,-34.8422864]]]}},{"type":"Feature","properties":{"nomenclatura":"003040B00000000000000000000002010000007000","partida":"003099737","tipo":"Urbano","superficie_m2":2394.96,"candidate_zone":"productiva","source_fraction":0.5728,"source_coverage":1.0,"source_dominance":0.5728,"source_margin":0.2723,"vectorization_status":"unresolved-boundary-fragment"},"geometry":{"type":"Polygon","coordinates":[[[-58.3521428,-34.8429248],[-58.3524785,-34.8424754],[-58.3520994,-34.8422864],[-58.3517573,-34.8427378],[-58.3521428,-34.8429248]]]}},{"type":"Feature","properties":{"nomenclatura":"003040B00000000000000000000002010000008000","partida":"003099738","tipo":"Urbano","superficie_m2":2242.55,"candidate_zone":"productiva","source_fraction":0.59,"source_coverage":1.0,"source_dominance":0.59,"source_margin":0.315,"vectorization_status":"unresolved-boundary-fragment"},"geometry":{"type":"Polygon","coordinates":[[[-58.3524785,-34.8424754],[-58.3521428,-34.8429248],[-58.3524451,-34.8430713],[-58.3525474,-34.8430475],[-58.3528441,-34.8426576],[-58.3524785,-34.8424754]]]}},{"type":"Feature","properties":{"nomenclatura":"003040E00000000000000000000001860000001000","partida":"003000444","tipo":"Urbano","superficie_m2":388.32,"candidate_zone":"recuperacion","source_fraction":0.5476,"source_coverage":1.0,"source_dominance":0.5476,"source_margin":0.0952,"vectorization_status":"unresolved-boundary-fragment"},"geometry":{"type":"Polygon","coordinates":[[[-58.3472158,-34.8731586],[-58.3472707,-34.8730854],[-58.3469402,-34.8729097],[-58.3468976,-34.8729179],[-58.3468526,-34.8729776],[-58.3472158,-34.8731586]]]}},{"type":"Feature","properties":{"nomenclatura":"003040E00000000000000000200000000000006000","partida":"003135141","tipo":"Urbano","superficie_m2":4635.63,"candidate_zone":"productiva","source_fraction":0.4526,"source_coverage":1.0,"source_dominance":0.4526,"source_margin":0.0633,"vectorization_status":"unresolved-boundary-fragment"},"geometry":{"type":"Polygon","coordinates":[[[-58.339943,-34.8831738],[-58.3406139,-34.8822397],[-58.3402542,-34.882067],[-58.3395778,-34.8829938],[-58.339943,-34.8831738]]]}},{"type":"Feature","properties":{"nomenclatura":"003040E00000000000000000200000000000007000","partida":"003135142","tipo":"Urbano","superficie_m2":2460.13,"candidate_zone":"productiva","source_fraction":0.3379,"source_coverage":0.3379,"source_dominance":1.0,"source_margin":1.0,"vectorization_status":"unresolved-boundary-fragment"},"geometry":{"type":"Polygon","coordinates":[[[-58.3402086,-34.8828029],[-58.339943,-34.8831738],[-58.3404169,-34.8834099],[-58.3406941,-34.8830347],[-58.3402086,-34.8828029]]]}},{"type":"Feature","properties":{"nomenclatura":"003040E00000000000000000200000000000008000","partida":"003135143","tipo":"Urbano","superficie_m2":1889.57,"candidate_zone":"recuperacion","source_fraction":0.2457,"source_coverage":0.2857,"source_dominance":0.86,"source_margin":0.72,"vectorization_status":"unresolved-boundary-fragment"},"geometry":{"type":"Polygon","coordinates":[[[-58.3409003,-34.8827495],[-58.3404178,-34.8825176],[-58.3402086,-34.8828029],[-58.3406941,-34.8830347],[-58.3409003,-34.8827495]]]}},{"type":"Feature","properties":{"nomenclatura":"003040E00000000000000000200000000000013000","partida":"003135148","tipo":"Urbano","superficie_m2":4120.94,"candidate_zone":"equipamiento","source_fraction":0.5217,"source_coverage":1.0,"source_dominance":0.5217,"source_margin":0.0435,"vectorization_status":"unresolved-boundary-fragment"},"geometry":{"type":"Polygon","coordinates":[[[-58.3406139,-34.8822397],[-58.3412216,-34.881399],[-58.3408625,-34.8812278],[-58.3402542,-34.882067],[-58.3406139,-34.8822397]]]}},{"type":"Feature","properties":{"nomenclatura":"003040E00000000000000000500000000000002000","partida":"003135204","tipo":"Urbano","superficie_m2":3442.56,"candidate_zone":"productiva","source_fraction":0.4814,"source_coverage":0.4814,"source_dominance":1.0,"source_margin":1.0,"vectorization_status":"unresolved-boundary-fragment"},"geometry":{"type":"Polygon","coordinates":[[[-58.3377382,-34.8855871],[-58.3385832,-34.8860203],[-58.338805,-34.8857259],[-58.3379528,-34.8852992],[-58.3377382,-34.8855871]]]}},{"type":"Feature","properties":{"nomenclatura":"003040E00000000000000000500000000000003000","partida":"003135205","tipo":"Urbano","superficie_m2":3584.2,"candidate_zone":"productiva","source_fraction":0.4545,"source_coverage":0.4545,"source_dominance":1.0,"source_margin":1.0,"vectorization_status":"unresolved-boundary-fragment"},"geometry":{"type":"Polygon","coordinates":[[[-58.3383563,-34.8863113],[-58.3385832,-34.8860203],[-58.3377382,-34.8855871],[-58.3374964,-34.8858899],[-58.3383563,-34.8863113]]]}},{"type":"Feature","properties":{"nomenclatura":"003040E00000000000000000500000000000004000","partida":"003135206","tipo":"Urbano","superficie_m2":5311.17,"candidate_zone":"productiva","source_fraction":0.1613,"source_coverage":0.1613,"source_dominance":1.0,"source_margin":1.0,"vectorization_status":"unresolved-boundary-fragment"},"geometry":{"type":"Polygon","coordinates":[[[-58.3372877,-34.8861664],[-58.3386294,-34.8868415],[-58.3388478,-34.8865552],[-58.3374964,-34.8858899],[-58.3372877,-34.8861664]]]}},{"type":"Feature","properties":{"nomenclatura":"003040E00000000000000000500000000000005000","partida":"003135207","tipo":"Urbano","superficie_m2":5560.58,"candidate_zone":"productiva","source_fraction":0.2632,"source_coverage":0.2632,"source_dominance":1.0,"source_margin":1.0,"vectorization_status":"unresolved-boundary-fragment"},"geometry":{"type":"Polygon","coordinates":[[[-58.3370638,-34.8864671],[-58.3384052,-34.8871342],[-58.3386294,-34.8868415],[-58.3372877,-34.8861664],[-58.3370638,-34.8864671]]]}},{"type":"Feature","properties":{"nomenclatura":"003040E00000000000000000500000000000006000","partida":"003135208","tipo":"Urbano","superficie_m2":3372.21,"candidate_zone":"productiva","source_fraction":0.4894,"source_coverage":0.4894,"source_dominance":1.0,"source_margin":1.0,"vectorization_status":"unresolved-boundary-fragment"},"geometry":{"type":"Polygon","coordinates":[[[-58.3368476,-34.8867488],[-58.3376886,-34.8871735],[-58.337912,-34.8868884],[-58.3370638,-34.8864671],[-58.3368476,-34.8867488]]]}},{"type":"Feature","properties":{"nomenclatura":"003040E00000000000000000500000000000007000","partida":"003135209","tipo":"Urbano","superficie_m2":3401.27,"candidate_zone":"productiva","source_fraction":0.5967,"source_coverage":0.5967,"source_dominance":1.0,"source_margin":1.0,"vectorization_status":"unresolved-boundary-fragment"},"geometry":{"type":"Polygon","coordinates":[[[-58.3366237,-34.887038],[-58.3374752,-34.8874615],[-58.3376886,-34.8871735],[-58.3368476,-34.8867488],[-58.3366237,-34.887038]]]}}]}
