{"type":"FeatureCollection","features":[{"type":"Feature","properties":{"zone":"equipamiento","label":"Equipamiento","color":"#d4777e"},"geometry":{"type":"MultiPolygon","coordinates":[[[[-58.34993,-34.85461],[-58.34974,-34.85519],[-58.35229,-34.85653],[-58.35308,-34.85807],[-58.35318,-34.85643],[-58.35633,-34.85808],[-58.35488,-34.86019],[-58.35381,-34.85909],[-58.35457,-34.8605],[-58.35415,-34.8612],[-58.34569,-34.85651],[-58.34775,-34.85348],[-58.34993,-34.85461]]],[[[-58.34184,-34.88013],[-58.34027,-34.88227],[-58.33898,-34.88142],[-58.34062,-34.87931],[-58.34184,-34.88013]]]]}}]}