{"type":"FeatureCollection","features":[{"type":"Feature","properties":{"zone":"productiva","label":"Zona Productiva","color":"#789766"},"geometry":{"type":"MultiPolygon","coordinates":[[[[-58.32809,-34.84027],[-58.32935,-34.84086],[-58.32908,-34.84143],[-58.32779,-34.84071],[-58.32809,-34.84027]]],[[[-58.32301,-34.82701],[-58.32283,-34.82662],[-58.32611,-34.82195],[-58.32571,-34.82152],[-58.32657,-34.82142],[-58.32688,-34.82078],[-58.32905,-34.8204],[-58.32941,-34.82112],[-58.33038,-34.82118],[-58.33174,-34.82232],[-58.33211,-34.82224],[-58.33225,-34.82292],[-58.33352,-34.82303],[-58.33406,-34.82408],[-58.33551,-34.82419],[-58.33762,-34.82535],[-58.33584,-34.82478],[-58.33469,-34.82645],[-58.33546,-34.82731],[-58.33687,-34.82791],[-58.33678,-34.82874],[-58.33808,-34.82895],[-58.3382,-34.82837],[-58.33728,-34.82779],[-58.33861,-34.82603],[-58.33894,-34.82662],[-58.34116,-34.82746],[-58.34148,-34.82854],[-58.34167,-34.82809],[-58.34253,-34.82819],[-58.34774,-34.83103],[-58.34777,-34.83142],[-58.34926,-34.83182],[-58.35095,-34.83313],[-58.35506,-34.83497],[-58.35519,-34.83601],[-58.3536,-34.83786],[-58.3535,-34.83902],[-58.35412,-34.83801],[-58.35483,-34.83797],[-58.35507,-34.83917],[-58.35566,-34.83925],[-58.3572,-34.83662],[-58.36042,-34.83798],[-58.35535,-34.84466],[-58.35431,-34.84434],[-58.35963,-34.84741],[-58.35751,-34.85853],[-58.35718,-34.85868],[-58.35744,-34.86321],[-58.35481,-34.86187],[-58.35489,-34.86155],[-58.35378,-34.86128],[-58.3543,-34.8612],[-58.35461,-34.8605],[-58.35258,-34.85686],[-58.35292,-34.85684],[-58.3548,-34.86028],[-58.35606,-34.85845],[-58.3568,-34.85854],[-58.3567,-34.85806],[-58.35567,-34.85735],[-58.355,-34.85745],[-58.3523,-34.85579],[-58.35205,-34.85523],[-58.35101,-34.8551],[-58.34957,-34.85402],[-58.3487,-34.85451],[-58.34805,-34.85323],[-58.34489,-34.85745],[-58.34359,-34.85744],[-58.34192,-34.85665],[-58.34108,-34.85781],[-58.33986,-34.8571],[-58.3417,-34.85438],[-58.33915,-34.85278],[-58.33694,-34.85552],[-58.33443,-34.85415],[-58.33619,-34.8513],[-58.33349,-34.8497],[-58.33425,-34.84902],[-58.33488,-34.84913],[-58.33615,-34.84714],[-58.33252,-34.84515],[-58.33408,-34.84353],[-58.33481,-34.84194],[-58.33223,-34.84053],[-58.33147,-34.84109],[-58.32744,-34.83883],[-58.32692,-34.83894],[-58.32637,-34.83825],[-58.32585,-34.83813],[-58.32543,-34.83861],[-58.32429,-34.83792],[-58.32325,-34.83983],[-58.32277,-34.83984],[-58.32424,-34.84066],[-58.32371,-34.84168],[-58.32245,-34.84077],[-58.32215,-34.84131],[-58.32103,-34.84092],[-58.32027,-34.84199],[-58.31964,-34.84194],[-58.31706,-34.84011],[-58.31657,-34.84022],[-58.3161,-34.83924],[-58.31587,-34.83978],[-58.31387,-34.83859],[-58.31014,-34.84363],[-58.30508,-34.84079],[-58.30873,-34.83623],[-58.3094,-34.836],[-58.30941,-34.83542],[-58.31067,-34.83391],[-58.31122,-34.83412],[-58.31125,-34.8347],[-58.31163,-34.8342],[-58.31378,-34.8353],[-58.31425,-34.83605],[-58.31448,-34.83571],[-58.3153,-34.83602],[-58.3161,-34.83457],[-58.31329,-34.83306],[-58.31348,-34.83271],[-58.313,-34.83289],[-58.31207,-34.83234],[-58.31318,-34.83099],[-58.31617,-34.83283],[-58.31724,-34.83309],[-58.31881,-34.83075],[-58.31512,-34.82857],[-58.31846,-34.82503],[-58.31928,-34.82499],[-58.32523,-34.82837],[-58.32394,-34.82701],[-58.32301,-34.82701]]],[[[-58.3275,-34.84232],[-58.32652,-34.84283],[-58.32651,-34.84341],[-58.32536,-34.84338],[-58.32494,-34.84385],[-58.32525,-34.84305],[-58.32462,-34.84264],[-58.3249,-34.84188],[-58.32453,-34.84158],[-58.32491,-34.84104],[-58.32561,-34.84145],[-58.32536,-34.84109],[-58.32596,-34.84043],[-58.3271,-34.84137],[-58.32591,-34.84149],[-58.32586,-34.84188],[-58.3275,-34.84232]]],[[[-58.32214,-34.85069],[-58.31845,-34.84864],[-58.3202,-34.84611],[-58.32084,-34.84594],[-58.32112,-34.84495],[-58.32407,-34.8465],[-58.32499,-34.8453],[-58.32485,-34.84462],[-58.32672,-34.84458],[-58.3268,-34.84375],[-58.32721,-34.84376],[-58.32754,-34.84464],[-58.32673,-34.8459],[-58.32614,-34.84563],[-58.32214,-34.85069]]],[[[-58.32435,-34.85467],[-58.32534,-34.85573],[-58.32553,-34.85535],[-58.32661,-34.8559],[-58.32623,-34.8564],[-58.32564,-34.85587],[-58.32599,-34.85691],[-58.32568,-34.85764],[-58.32516,-34.85785],[-58.32088,-34.85517],[-58.32045,-34.85374],[-58.32112,-34.85398],[-58.32215,-34.85272],[-58.32243,-34.8536],[-58.32435,-34.85467]]],[[[-58.35321,-34.86885],[-58.35484,-34.8669],[-58.35717,-34.86823],[-58.35704,-34.86939],[-58.35616,-34.87049],[-58.35321,-34.86885]]],[[[-58.32529,-34.86586],[-58.32589,-34.86559],[-58.32755,-34.86661],[-58.32207,-34.87366],[-58.32045,-34.87254],[-58.32529,-34.86586]]],[[[-58.3454,-34.87456],[-58.34534,-34.8755],[-58.34389,-34.87558],[-58.34447,-34.87676],[-58.34176,-34.88061],[-58.34155,-34.87963],[-58.34043,-34.87931],[-58.33902,-34.88155],[-58.34046,-34.88221],[-58.34034,-34.88295],[-58.33688,-34.88723],[-58.33,-34.8833],[-58.33526,-34.8763],[-58.33523,-34.87595],[-58.33257,-34.87444],[-58.33505,-34.87101],[-58.33901,-34.87317],[-58.34171,-34.86974],[-58.34695,-34.87303],[-58.34631,-34.87343],[-58.34634,-34.87408],[-58.3454,-34.87456]]],[[[-58.31386,-34.84843],[-58.3126,-34.84794],[-58.312,-34.84866],[-58.31212,-34.84799],[-58.31141,-34.84787],[-58.31111,-34.84824],[-58.31075,-34.84749],[-58.3122,-34.84554],[-58.31279,-34.84552],[-58.31423,-34.84634],[-58.31313,-34.84753],[-58.31313,-34.84799],[-58.31386,-34.84843]]],[[[-58.3007,-34.84636],[-58.30517,-34.8488],[-58.30437,-34.85009],[-58.29974,-34.84772],[-58.3007,-34.84636]]],[[[-58.31735,-34.84983],[-58.31688,-34.84891],[-58.31497,-34.84888],[-58.31502,-34.84821],[-58.3164,-34.84822],[-58.31663,-34.84777],[-58.31837,-34.8488],[-58.31735,-34.84983]]],[[[-58.31696,-34.85053],[-58.31586,-34.8521],[-58.31378,-34.85113],[-58.31609,-34.85134],[-58.31696,-34.85053]]],[[[-58.31978,-34.85591],[-58.32215,-34.85724],[-58.32066,-34.85926],[-58.31826,-34.85773],[-58.31978,-34.85591]]],[[[-58.30986,-34.85627],[-58.30804,-34.85831],[-58.31007,-34.85956],[-58.30858,-34.86158],[-58.30776,-34.86149],[-58.30788,-34.86098],[-58.30736,-34.86115],[-58.30274,-34.85846],[-58.30568,-34.85442],[-58.30569,-34.85375],[-58.30616,-34.85463],[-58.30639,-34.85425],[-58.30827,-34.85564],[-58.30986,-34.85627]]],[[[-58.32075,-34.86274],[-58.31923,-34.86466],[-58.31812,-34.86424],[-58.31663,-34.86619],[-58.31589,-34.86614],[-58.31327,-34.86438],[-58.31533,-34.86138],[-58.31582,-34.8613],[-58.3156,-34.8609],[-58.31613,-34.86034],[-58.31684,-34.8603],[-58.31913,-34.8615],[-58.32066,-34.85948],[-58.32232,-34.86044],[-58.32171,-34.86152],[-58.32248,-34.86235],[-58.32039,-34.86202],[-58.32075,-34.86274]]]]}}]}